[{"OBJECT_NAME":"STARLINK-2292","OBJECT_ID":"2021-024AY","EPOCH":"2026-03-10T00:00:02.999808","MEAN_MOTION":15.13637782,"ECCENTRICITY":0.00019543,"INCLINATION":53.0827,"RA_OF_ASC_NODE":330.0861,"ARG_OF_PERICENTER":75.6731,"MEAN_ANOMALY":66.4802,"EPHEMERIS_TYPE":0,"CLASSIFICATION_TYPE":"U","NORAD_CAT_ID":48023,"ELEMENT_SET_NO":999,"REV_AT_EPOCH":579,"BSTAR":0.001671296,"MEAN_MOTION_DOT":0.00030213,"MEAN_MOTION_DDOT":0},{"OBJECT_NAME":"PSLV R\/B","OBJECT_ID":"2010-035F","EPOCH":"2026-03-09T21:32:02.806944","MEAN_MOTION":15.11637156,"ECCENTRICITY":0.00120112,"INCLINATION":97.9796,"RA_OF_ASC_NODE":355.2302,"ARG_OF_PERICENTER":197.9598,"MEAN_ANOMALY":162.1208,"EPHEMERIS_TYPE":0,"CLASSIFICATION_TYPE":"U","NORAD_CAT_ID":36800,"ELEMENT_SET_NO":999,"REV_AT_EPOCH":85407,"BSTAR":0.00037264097,"MEAN_MOTION_DOT":6.275e-5,"MEAN_MOTION_DDOT":0}]
